OBJECT_NAME,OBJECT_ID,EPOCH,MEAN_MOTION,ECCENTRICITY,INCLINATION,RA_OF_ASC_NODE,ARG_OF_PERICENTER,MEAN_ANOMALY,EPHEMERIS_TYPE,CLASSIFICATION_TYPE,NORAD_CAT_ID,ELEMENT_SET_NO,REV_AT_EPOCH,BSTAR,MEAN_MOTION_DOT,MEAN_MOTION_DDOT
STARLINK-3978,2022-052AP,2026-06-30T14:00:01.000224,15.18248008,.00016441,53.1611,111.9758,108.9734,146.1683,0,U,52635,999,580,.41846485E-2,.87479E-3,0
STARLINK-3967,2022-052AQ,2026-06-30T02:44:06.855072,15.08835860,.00018789,53.1601,124.2564,86.8800,273.2406,0,U,52636,999,22796,.18803494E-4,.11E-6,0
STARLINK-3961,2022-052AR,2026-06-30T14:00:01.000224,15.19518516,.00009911,53.1594,111.9177,126.2161,179.3021,0,U,52637,999,585,.4267884E-2,.92636E-3,0
STARLINK-3941,2022-052AS,2026-06-30T14:00:01.000224,15.21258969,.00009515,53.1609,121.6822,149.9865,141.3551,0,U,52638,999,570,.18745121E-2,.42331E-3,0
STARLINK-3968,2022-052AT,2026-06-30T01:47:09.015360,15.08825128,.00014231,53.1594,114.4334,89.0364,271.0791,0,U,52639,999,22890,.12370022E-3,.168E-4,0
STARLINK-3977,2022-052AU,2026-06-30T02:13:38.800416,15.08837932,.00016962,53.1610,114.3806,92.5847,267.5338,0,U,52640,999,22809,.9091674E-5,-.143E-5,0
STARLINK-3991,2022-052AV,2026-06-30T14:00:01.000224,15.22328877,.00009189,53.1591,111.9432,65.5356,305.7339,0,U,52641,999,585,.51425096E-1,.1299542E-1,0
STARLINK-3971,2022-052AW,2026-06-30T01:57:44.622144,15.08837198,.00016149,53.1616,114.4011,91.4844,268.6332,0,U,52642,999,22809,.1491922E-4,-.51E-6,0
STARLINK-3963,2022-052AX,2026-06-30T14:00:01.000224,15.18879354,.00015536,53.1608,111.9227,56.9721,26.0969,0,U,52643,999,580,.4437553E-2,.94588E-3,0
STARLINK-3985,2022-052AY,2026-06-30T01:52:26.825664,15.08834800,.00014167,53.1614,114.4182,93.3886,266.7267,0,U,52644,999,22809,.26175805E-4,.129E-5,0
STARLINK-3973,2022-052AZ,2026-06-30T14:00:01.000224,15.21935619,.00017973,53.1612,111.6776,91.7095,131.9268,0,U,52645,999,584,.26535875E-2,.61431E-3,0
STARLINK-3832,2022-052BA,2026-06-30T00:05:26.446848,15.09395947,.00028038,53.1600,114.7826,45.4756,314.6464,0,U,52646,999,22809,.3905216E-2,.63388E-3,0
STARLINK-3854,2022-052BC,2026-06-30T03:06:38.320416,15.08832871,.00013205,53.1600,114.1854,91.7223,268.3920,0,U,52648,999,22810,.35773325E-4,.281E-5,0
STARLINK-3868,2022-052BD,2026-06-30T14:00:01.000224,15.19276790,.00020002,53.1611,111.7792,92.9271,106.9382,0,U,52649,999,564,.41569992E-2,.89553E-3,0
STARLINK-3891,2022-052BE,2026-06-30T01:43:11.719488,15.08832119,.000152,53.1616,104.5535,90.7089,269.4077,0,U,52650,999,22824,-.45859563E-4,-.1018E-4,0
STARLINK-4004,2022-053A,2026-06-30T11:58:35.799744,15.08834605,.00008962,53.1606,7.5335,98.5351,261.5742,0,U,52656,999,22814,.23825936E-4,.91E-6,0
STARLINK-4084,2022-053B,2026-06-30T14:00:01.000224,15.23173770,.00019082,53.1596,6.9834,89.6343,57.9358,0,U,52657,999,563,.46759338E-1,.1221617E-1,0
STARLINK-4082,2022-053C,2026-06-29T21:44:03.280992,15.08806735,.00012547,53.1606,10.1930,97.8978,262.2155,0,U,52658,999,22817,.36761666E-3,.5562E-4,0
STARLINK-3960,2022-053D,2026-06-29T21:38:44.390688,15.08831630,.00009652,53.1600,10.1595,90.8221,269.2881,0,U,52659,999,22816,.13614273E-4,-.71E-6,0
STARLINK-4081,2022-053E,2026-06-30T14:00:01.000224,15.20472245,.00013212,53.1615,6.8448,102.1552,177.1300,0,U,52660,999,580,.33927658E-1,.802618E-2,0
STARLINK-4044,2022-053G,2026-06-29T19:42:09.983232,15.08830895,.00014009,53.1602,10.5733,87.6025,272.5126,0,U,52662,999,22797,.28304719E-4,.162E-5,0
STARLINK-4037,2022-053H,2026-06-29T22:47:38.457024,15.08829292,.00012625,53.1620,9.9986,86.9086,273.2050,0,U,52663,999,22799,-.10763971E-4,-.459E-5,0
STARLINK-4070,2022-053J,2026-06-29T22:58:14.384352,15.08828332,.00011701,53.1604,9.9600,85.3330,274.7795,0,U,52664,999,22799,.1511359E-5,-.264E-5,0
STARLINK-4064,2022-053K,2026-06-29T22:31:44.421312,15.08835061,.00012944,53.1616,10.0446,93.2791,266.8349,0,U,52665,999,22799,.586561E-5,-.195E-5,0
STARLINK-4079,2022-053L,2026-06-29T21:49:16.811904,15.08829595,.0001236,53.1609,9.7919,98.1386,261.9746,0,U,52666,999,22799,.59285119E-4,.655E-5,0
STARLINK-4076,2022-053M,2026-06-30T12:44:54.790944,15.08832699,.0001281,53.1615,7.3813,88.5083,271.6055,0,U,52667,999,22808,.14278374E-4,-.61E-6,0
STARLINK-4067,2022-053N,2026-06-30T14:00:01.000224,15.21451940,.0001134,53.1599,6.7584,95.8696,348.4340,0,U,52668,999,574,.3065849E-1,.751558E-2,0
STARLINK-3972,2022-053P,2026-06-29T18:59:46.308480,15.08837322,.00013002,53.1611,10.7066,88.0505,272.0635,0,U,52669,999,22796,.38357435E-4,.322E-5,0
STARLINK-4075,2022-053Q,2026-06-29T19:31:34.653792,15.08832594,.00013308,53.1617,10.6759,90.7261,269.3883,0,U,52670,999,22797,.39943769E-4,.348E-5,0
STARLINK-4071,2022-053R,2026-06-30T12:23:42.790272,15.08837683,.00012592,53.1609,7.4467,89.4666,270.6470,0,U,52671,999,22807,.77402836E-4,.944E-5,0
