STARLINK-3978           
1 52635U 22052AP  26181.58334491  .00087479  00000+0  41846-2 0  9996
2 52635  53.1611 111.9758 0001644 108.9734 146.1683 15.18248008  5808
STARLINK-3967           
1 52636U 22052AQ  26181.11396823  .00000011  00000+0  18803-4 0  9999
2 52636  53.1601 124.2564 0001878  86.8800 273.2406 15.08835860227962
STARLINK-3961           
1 52637U 22052AR  26181.58334491  .00092636  00000+0  42679-2 0  9994
2 52637  53.1594 111.9177 0000991 126.2161 179.3021 15.19518516  5850
STARLINK-3941           
1 52638U 22052AS  26181.58334491  .00042331  00000+0  18745-2 0  9999
2 52638  53.1609 121.6822 0000951 149.9865 141.3551 15.21258969  5709
STARLINK-3968           
1 52639U 22052AT  26181.07440990  .00001680  00000+0  12370-3 0  9997
2 52639  53.1594 114.4334 0001423  89.0364 271.0791 15.08825128228902
STARLINK-3977           
1 52640U 22052AU  26181.09281019 -.00000143  00000+0  90917-5 0  9995
2 52640  53.1610 114.3806 0001696  92.5847 267.5338 15.08837932228096
STARLINK-3991           
1 52641U 22052AV  26181.58334491  .01299542  00000+0  51425-1 0  9993
2 52641  53.1591 111.9432 0000918  65.5356 305.7339 15.22328877  5856
STARLINK-3971           
1 52642U 22052AW  26181.08176646 -.00000051  00000+0  14919-4 0  9990
2 52642  53.1616 114.4011 0001614  91.4844 268.6332 15.08837198228098
STARLINK-3963           
1 52643U 22052AX  26181.58334491  .00094588  00000+0  44376-2 0  9995
2 52643  53.1608 111.9227 0001553  56.9721  26.0969 15.18879354  5808
STARLINK-3985           
1 52644U 22052AY  26181.07808826  .00000129  00000+0  26176-4 0  9996
2 52644  53.1614 114.4182 0001416  93.3886 266.7267 15.08834800228097
STARLINK-3973           
1 52645U 22052AZ  26181.58334491  .00061431  00000+0  26536-2 0  9996
2 52645  53.1612 111.6776 0001797  91.7095 131.9268 15.21935619  5845
STARLINK-3832           
1 52646U 22052BA  26181.00377832  .00063388  00000+0  39052-2 0  9990
2 52646  53.1600 114.7826 0002803  45.4756 314.6464 15.09395947228094
STARLINK-3854           
1 52648U 22052BC  26181.12961019  .00000281  00000+0  35773-4 0  9992
2 52648  53.1600 114.1854 0001320  91.7223 268.3920 15.08832871228102
STARLINK-3868           
1 52649U 22052BD  26181.58334491  .00089553  00000+0  41570-2 0  9990
2 52649  53.1611 111.7792 0002000  92.9271 106.9382 15.19276790  5646
STARLINK-3891           
1 52650U 22052BE  26181.07166342 -.00001018  00000+0 -45860-4 0  9994
2 52650  53.1616 104.5535 0001520  90.7089 269.4077 15.08832119228247
STARLINK-4004           
1 52656U 22053A   26181.49902546  .00000091  00000+0  23826-4 0  9997
2 52656  53.1606   7.5335 0000896  98.5351 261.5742 15.08834605228148
STARLINK-4084           
1 52657U 22053B   26181.58334491  .01221617  00000+0  46759-1 0  9993
2 52657  53.1596   6.9834 0001908  89.6343  57.9358 15.23173770  5634
STARLINK-4082           
1 52658U 22053C   26180.90559353  .00005562  00000+0  36762-3 0  9998
2 52658  53.1606  10.1930 0001254  97.8978 262.2155 15.08806735228179
STARLINK-3960           
1 52659U 22053D   26180.90190267 -.00000071  00000+0  13614-4 0  9997
2 52659  53.1600  10.1595 0000965  90.8221 269.2881 15.08831630228167
STARLINK-4081           
1 52660U 22053E   26181.58334491  .00802618  00000+0  33928-1 0  9996
2 52660  53.1615   6.8448 0001321 102.1552 177.1300 15.20472245  5809
STARLINK-4044           
1 52662U 22053G   26180.82094888  .00000162  00000+0  28305-4 0  9997
2 52662  53.1602  10.5733 0001400  87.6025 272.5126 15.08830895227971
STARLINK-4037           
1 52663U 22053H   26180.94975066 -.00000459  00000+0 -10764-4 0  9998
2 52663  53.1620   9.9986 0001262  86.9086 273.2050 15.08829292227994
STARLINK-4070           
1 52664U 22053J   26180.95711093 -.00000264  00000+0  15114-5 0  9996
2 52664  53.1604   9.9600 0001170  85.3330 274.7795 15.08828332227999
STARLINK-4064           
1 52665U 22053K   26180.93870858 -.00000195  00000+0  58656-5 0  9991
2 52665  53.1616  10.0446 0001294  93.2791 266.8349 15.08835061227994
STARLINK-4079           
1 52666U 22053L   26180.90922236  .00000655  00000+0  59285-4 0  9995
2 52666  53.1609   9.7919 0001236  98.1386 261.9746 15.08829595227999
STARLINK-4076           
1 52667U 22053M   26181.53118971 -.00000061  00000+0  14278-4 0  9994
2 52667  53.1615   7.3813 0001281  88.5083 271.6055 15.08832699228082
STARLINK-4067           
1 52668U 22053N   26181.58334491  .00751558  00000+0  30658-1 0  9997
2 52668  53.1599   6.7584 0001134  95.8696 348.4340 15.21451940  5747
STARLINK-3972           
1 52669U 22053P   26180.79150820  .00000322  00000+0  38357-4 0  9995
2 52669  53.1611  10.7066 0001300  88.0505 272.0635 15.08837322227967
STARLINK-4075           
1 52670U 22053Q   26180.81359553  .00000348  00000+0  39944-4 0  9995
2 52670  53.1617  10.6759 0001330  90.7261 269.3883 15.08832594227976
STARLINK-4071           
1 52671U 22053R   26181.51646748  .00000944  00000+0  77403-4 0  9993
2 52671  53.1609   7.4467 0001259  89.4666 270.6470 15.08837683228075
